CCSDS_OMM_VERS = 2.0
CREATION_DATE  = 
ORIGINATOR     = 

OBJECT_NAME    = DUPLEX
OBJECT_ID      = 1998-067XS
CENTER_NAME    = EARTH
REF_FRAME      = TEME
TIME_SYSTEM    = UTC
MEAN_ELEMENT_THEORY = SGP/SGP4

EPOCH          = 2026-01-17T03:40:43.704768
MEAN_MOTION    = 15.52575732
ECCENTRICITY   = .00021987
INCLINATION    = 51.6322
RA_OF_ASC_NODE = 326.5208
ARG_OF_PERICENTER = 23.5991
MEAN_ANOMALY   = 336.5100

EPHEMERIS_TYPE = 0
CLASSIFICATION_TYPE = U
NORAD_CAT_ID   = 66906
ELEMENT_SET_NO = 999
REV_AT_EPOCH   = 711
BSTAR          = .47045494E-3
MEAN_MOTION_DOT = .29075E-3
MEAN_MOTION_DDOT = 0

CCSDS_OMM_VERS = 2.0
CREATION_DATE  = 
ORIGINATOR     = 

OBJECT_NAME    = 1998-067XT
OBJECT_ID      = 1998-067XT
CENTER_NAME    = EARTH
REF_FRAME      = TEME
TIME_SYSTEM    = UTC
MEAN_ELEMENT_THEORY = SGP/SGP4

EPOCH          = 2026-01-17T06:56:05.030304
MEAN_MOTION    = 15.56666073
ECCENTRICITY   = .00035768
INCLINATION    = 51.6304
RA_OF_ASC_NODE = 325.1763
ARG_OF_PERICENTER = 75.1195
MEAN_ANOMALY   = 285.0193

EPHEMERIS_TYPE = 0
CLASSIFICATION_TYPE = U
NORAD_CAT_ID   = 66907
ELEMENT_SET_NO = 999
REV_AT_EPOCH   = 714
BSTAR          = .11196593E-2
MEAN_MOTION_DOT = .81741E-3
MEAN_MOTION_DDOT = 0

CCSDS_OMM_VERS = 2.0
CREATION_DATE  = 
ORIGINATOR     = 

OBJECT_NAME    = 1998-067XU
OBJECT_ID      = 1998-067XU
CENTER_NAME    = EARTH
REF_FRAME      = TEME
TIME_SYSTEM    = UTC
MEAN_ELEMENT_THEORY = SGP/SGP4

EPOCH          = 2026-01-17T05:22:26.576544
MEAN_MOTION    = 15.56588229
ECCENTRICITY   = .00034772
INCLINATION    = 51.6309
RA_OF_ASC_NODE = 325.4903
ARG_OF_PERICENTER = 69.4149
MEAN_ANOMALY   = 290.7216

EPHEMERIS_TYPE = 0
CLASSIFICATION_TYPE = U
NORAD_CAT_ID   = 66908
ELEMENT_SET_NO = 999
REV_AT_EPOCH   = 713
BSTAR          = .1047398E-2
MEAN_MOTION_DOT = .76157E-3
MEAN_MOTION_DDOT = 0

CCSDS_OMM_VERS = 2.0
CREATION_DATE  = 
ORIGINATOR     = 

OBJECT_NAME    = SILVERSAT
OBJECT_ID      = 1998-067XV
CENTER_NAME    = EARTH
REF_FRAME      = TEME
TIME_SYSTEM    = UTC
MEAN_ELEMENT_THEORY = SGP/SGP4

EPOCH          = 2026-01-17T05:08:31.114464
MEAN_MOTION    = 15.57375299
ECCENTRICITY   = .0003762
INCLINATION    = 51.6304
RA_OF_ASC_NODE = 325.4267
ARG_OF_PERICENTER = 80.6753
MEAN_ANOMALY   = 279.4664

EPHEMERIS_TYPE = 0
CLASSIFICATION_TYPE = U
NORAD_CAT_ID   = 66909
ELEMENT_SET_NO = 999
REV_AT_EPOCH   = 713
BSTAR          = .1275716E-2
MEAN_MOTION_DOT = .95884E-3
MEAN_MOTION_DDOT = 0

CCSDS_OMM_VERS = 2.0
CREATION_DATE  = 
ORIGINATOR     = 

OBJECT_NAME    = 1998-067XW
OBJECT_ID      = 1998-067XW
CENTER_NAME    = EARTH
REF_FRAME      = TEME
TIME_SYSTEM    = UTC
MEAN_ELEMENT_THEORY = SGP/SGP4

EPOCH          = 2026-01-17T06:44:00.498048
MEAN_MOTION    = 15.56947427
ECCENTRICITY   = .00024765
INCLINATION    = 51.6293
RA_OF_ASC_NODE = 325.1176
ARG_OF_PERICENTER = 56.8464
MEAN_ANOMALY   = 303.2765

EPHEMERIS_TYPE = 0
CLASSIFICATION_TYPE = U
NORAD_CAT_ID   = 66910
ELEMENT_SET_NO = 999
REV_AT_EPOCH   = 714
BSTAR          = .10527961E-2
MEAN_MOTION_DOT = .77594E-3
MEAN_MOTION_DDOT = 0

CCSDS_OMM_VERS = 2.0
CREATION_DATE  = 
ORIGINATOR     = 

OBJECT_NAME    = 1998-067XX
OBJECT_ID      = 1998-067XX
CENTER_NAME    = EARTH
REF_FRAME      = TEME
TIME_SYSTEM    = UTC
MEAN_ELEMENT_THEORY = SGP/SGP4

EPOCH          = 2026-01-17T03:14:40.926624
MEAN_MOTION    = 15.58174598
ECCENTRICITY   = .0002516
INCLINATION    = 51.6293
RA_OF_ASC_NODE = 325.6476
ARG_OF_PERICENTER = 77.2390
MEAN_ANOMALY   = 282.8883

EPHEMERIS_TYPE = 0
CLASSIFICATION_TYPE = U
NORAD_CAT_ID   = 66911
ELEMENT_SET_NO = 999
REV_AT_EPOCH   = 711
BSTAR          = .12717016E-2
MEAN_MOTION_DOT = .9852E-3
MEAN_MOTION_DDOT = 0

CCSDS_OMM_VERS = 2.0
CREATION_DATE  = 
ORIGINATOR     = 

OBJECT_NAME    = 1998-067XY
OBJECT_ID      = 1998-067XY
CENTER_NAME    = EARTH
REF_FRAME      = TEME
TIME_SYSTEM    = UTC
MEAN_ELEMENT_THEORY = SGP/SGP4

EPOCH          = 2026-01-17T01:16:13.883808
MEAN_MOTION    = 15.55115671
ECCENTRICITY   = .00033441
INCLINATION    = 51.6313
RA_OF_ASC_NODE = 326.5995
ARG_OF_PERICENTER = 53.3923
MEAN_ANOMALY   = 306.7375

EPHEMERIS_TYPE = 0
CLASSIFICATION_TYPE = U
NORAD_CAT_ID   = 66912
ELEMENT_SET_NO = 999
REV_AT_EPOCH   = 709
BSTAR          = .81159787E-3
MEAN_MOTION_DOT = .55616E-3
MEAN_MOTION_DDOT = 0

